{
    "links": {
        "self": "http://www.neowsapp.com/rest/v1/neo/3824970?api_key=iIulBulltgU6a56xZRHN4H3l9WmuAYTsLGpBGhQ2"
    },
    "id": "3824970",
    "neo_reference_id": "3824970",
    "name": "(2018 KH)",
    "designation": "2018 KH",
    "nasa_jpl_url": "http://ssd.jpl.nasa.gov/sbdb.cgi?sstr=3824970",
    "absolute_magnitude_h": 24.5,
    "estimated_diameter": {
        "kilometers": {
            "estimated_diameter_min": 0.0334622374,
            "estimated_diameter_max": 0.0748238376
        },
        "meters": {
            "estimated_diameter_min": 33.4622374455,
            "estimated_diameter_max": 74.8238376074
        },
        "miles": {
            "estimated_diameter_min": 0.0207924639,
            "estimated_diameter_max": 0.0464933628
        },
        "feet": {
            "estimated_diameter_min": 109.7842471007,
            "estimated_diameter_max": 245.4850393757
        }
    },
    "is_potentially_hazardous_asteroid": false,
    "close_approach_data": [
        {
            "close_approach_date": "2012-11-10",
            "close_approach_date_full": "2012-Nov-10 08:38",
            "epoch_date_close_approach": 1352536680000,
            "relative_velocity": {
                "kilometers_per_second": "4.2417259955",
                "kilometers_per_hour": "15270.2135839499",
                "miles_per_hour": "9488.3168794271"
            },
            "miss_distance": {
                "astronomical": "1.5787205882",
                "lunar": "614.1223088098",
                "kilometers": "236173237.319867134",
                "miles": "146751244.7249250892"
            },
            "orbiting_body": "Juptr"
        },
        {
            "close_approach_date": "2018-05-22",
            "close_approach_date_full": "2018-May-22 20:58",
            "epoch_date_close_approach": 1527022680000,
            "relative_velocity": {
                "kilometers_per_second": "8.3078587932",
                "kilometers_per_hour": "29908.2916554213",
                "miles_per_hour": "18583.8493344477"
            },
            "miss_distance": {
                "astronomical": "0.0697271433",
                "lunar": "27.1238587437",
                "kilometers": "10431032.118864771",
                "miles": "6481542.8055289998"
            },
            "orbiting_body": "Earth"
        },
        {
            "close_approach_date": "2023-10-18",
            "close_approach_date_full": "2023-Oct-18 08:04",
            "epoch_date_close_approach": 1697616240000,
            "relative_velocity": {
                "kilometers_per_second": "5.1096546571",
                "kilometers_per_hour": "18394.7567655698",
                "miles_per_hour": "11429.7865024731"
            },
            "miss_distance": {
                "astronomical": "1.8987249364",
                "lunar": "738.6040002596",
                "kilometers": "284045206.201325468",
                "miles": "176497506.8353607384"
            },
            "orbiting_body": "Juptr"
        },
        {
            "close_approach_date": "2107-08-15",
            "close_approach_date_full": "2107-Aug-15 16:23",
            "epoch_date_close_approach": 4342868580000,
            "relative_velocity": {
                "kilometers_per_second": "3.8866693472",
                "kilometers_per_hour": "13992.0096498949",
                "miles_per_hour": "8694.0906627361"
            },
            "miss_distance": {
                "astronomical": "1.4032428131",
                "lunar": "545.8614542959",
                "kilometers": "209922135.932568097",
                "miles": "130439566.7054178586"
            },
            "orbiting_body": "Juptr"
        }
    ],
    "orbital_data": {
        "orbit_id": "12",
        "orbit_determination_date": "2018-08-09 07:24:33",
        "first_observation_date": "2018-05-16",
        "last_observation_date": "2018-06-19",
        "data_arc_in_days": 34,
        "observations_used": 87,
        "orbit_uncertainty": "7",
        "minimum_orbit_intersection": ".0619618",
        "jupiter_tisserand_invariant": "3.306",
        "epoch_osculation": "2459000.5",
        "eccentricity": ".5492220992362178",
        "semi_major_axis": "2.373999498006955",
        "inclination": "9.354721555706419",
        "ascending_node_longitude": "230.6562302220057",
        "orbital_period": "1336.03969320766",
        "perihelion_distance": "1.070146510125848",
        "perihelion_argument": "9.771130678659045",
        "aphelion_distance": "3.677852485888061",
        "perihelion_time": "2459597.797781312440",
        "mean_anomaly": "199.0562777695432",
        "mean_motion": ".2694530722629103",
        "equinox": "J2000",
        "orbit_class": {
            "orbit_class_type": "AMO",
            "orbit_class_description": "Near-Earth asteroid orbits similar to that of 1221 Amor",
            "orbit_class_range": "1.017 AU < q (perihelion) < 1.3 AU"
        }
    },
    "is_sentry_object": false
}